_id,Name,Address,City,State,Country,Zip Code,Latitude,Longitude,Hours
ObjectId("5c379680b96ec4c88ad19c49"),300 Suns Brewing Co,335 1st Ave C,Longmont,CO,US,80501,40.16022,-105.09983999999999,"[{""day"":""Sun""
ObjectId("5c379680b96ec4c88ad19c4c"),Ursula Brewery,2101 N Ursula St,Aurora,CO,US,80045,39.74794063,-104.8372883,"[{""day"":""Mon - Wed""
ObjectId("5c379680b96ec4c88ad19c6c"),Rock Cut Brewing Company,390 W Riverside Dr,Estes Park,CO,US,80517,40.373144,-105.522957,"[{""day"":""Sun""
ObjectId("5c379680b96ec4c88ad19c77"),Grossen Bart Brewery,1025 Delaware Ave,Longmont,CO,US,80501,40.154953000000006,-105.10933999999999,"[{""day"":""Mon - Thu""
ObjectId("5c379680b96ec4c88ad19c81"),Crabtree Brewing Company,2961 W 29th St,Greeley,CO,US,80631,40.39063554,-104.7267072,"[{""day"":""Monday
ObjectId("5c379680b96ec4c88ad19cd4"),Old Mill Brewery,5788 S Rapp St,Littleton,CO,US,80120,39.61196608,-105.01981119999999,"[{""day"":""Wed""
ObjectId("5c379680b96ec4c88ad19cdb"),Bonfire Brewing,127 W 2nd St,Eagle,CO,US,81631,39.65533268,-106.82873190000001,"[{""day"":""Mon - Thu""
ObjectId("5c379680b96ec4c88ad19cf4"),World of Beer,1555 Blake St,Denver,CO,US,80202,39.750288,-104.99976799999999,"[{""day"":""Mon - Sun""
ObjectId("5c379680b96ec4c88ad19d00"),Palisade Brewing Company,342 W 2nd St,Palisade,CO,US,81526,39.11114402,-108.3540129,"[{""day"":""Sat""
ObjectId("5c379680b96ec4c88ad19d10"),World of Beer,7260 W Alaska Dr,Denver,CO,US,80226,39.709068,-105.077258,"[{""day"":""Mon - Fri""
ObjectId("5c379680b96ec4c88ad19d5a"),Boulder Beer Tap House,W Jeppesen Terminal 5,Denver,CO,US,80249,39.84875971,-104.6737427,"[{""day"":""Thursday""
ObjectId("5c379680b96ec4c88ad19d69"),Pug Ryan's Brewing Company,104 Village Pl,Dillon,CO,US,80435,39.62804714,-106.0464899,"[{""day"":""Monday - Thursday""
ObjectId("5c379680b96ec4c88ad19d7c"),Mahogany Ridge Brewery & Grill,435 Lincoln Ave,Steamboat Springs,CO,US,80487,40.48405,-106.831375,"[{""day"":""Sun - Thu""
ObjectId("5c379680b96ec4c88ad19d86"),South Park Brewery,297 US 285,Fairplay,CO,US,80440,39.22045068,-105.99312079999999,"[{""day"":""Friday""
ObjectId("5c379680b96ec4c88ad19d8e"),First Draft,1309 26th St,Denver,CO,US,80205,39.758587,-104.98543000000001,"[{""day"":""Fri""
ObjectId("5c379680b96ec4c88ad19d9e"),Colorado Plus Brew Pub,6995 W 38th Ave,Wheat Ridge,CO,US,80033,39.76949196,-105.0742507,"[{""day"":""Monday - Friday""
ObjectId("5c379680b96ec4c88ad19dc5"),Rocky Mountain Brewery,625 Paonia St,Colorado Springs,CO,US,80915,38.8412,-104.7168,"[{""day"":""Saturday""
ObjectId("5c379680b96ec4c88ad19e3b"),Joe's Liquors,1060 W Beaver Creek Blvd,Avon,CO,US,81620,39.6355,-106.5375,"[{""day"":""Sun""
ObjectId("5c379680b96ec4c88ad19e3e"),Gravity Brewing,1150 Pine St,Louisville,CO,US,80027,39.977,-105.1292,"[{""day"":""Mon - Thu""
ObjectId("5c379680b96ec4c88ad19e4a"),Gravity Ten Twenty,1020 E Lincoln Ave,Fort Collins,CO,US,80524,40.5893,-105.0585,"[{""day"":""Sun""
ObjectId("5c379680b96ec4c88ad19e61"),The Perfect Pour,1671 S College Ave,Fort Collins,CO,US,80525,40.56541,-105.07718999999999,"[{""day"":""Monday - Saturday""
ObjectId("5c379680b96ec4c88ad19e95"),Smiling Toad Brewing,1757 S 8th St,Colorado Springs,CO,US,80905,38.8066,-104.8385,"[{""day"":""Tuesday - Saturday""
ObjectId("5c379680b96ec4c88ad19ea2"),10barrel brewing,2620 Walnut St,Denver,CO,US,80205,39.75939,-104.9855,"[{""day"":""Monday - Thursday
ObjectId("5c379680b96ec4c88ad19eb8"),Nighthawk Brewery,2780 Industrial Ln,Broomfield,CO,US,80020,39.92115869,-105.1011686,"[{""day"":""Monday - Wednesday""
ObjectId("5c379680b96ec4c88ad19ebe"),Blue Spruce Brewing Co.,4151 E County Line Rd,Littleton,CO,US,80122,39.56612,-104.93783,"[{""day"":""Monday - Friday""
ObjectId("5c379680b96ec4c88ad19ec9"),The Bakers' Brewery LLC,531 Silverthorne Ln,Silverthorne,CO,US,80497,39.629753,-106.06746000000001,"[{""day"":""Mon - Sun""
ObjectId("5c379680b96ec4c88ad19ee0"),Upslope Brewing Company,1501 Lee Hill Rd,Boulder,CO,US,80304,40.0628003,-105.2792358,"[{""day"":""Monday - Sunday""
ObjectId("5c379680b96ec4c88ad19ef7"),CooperSmith's Pub & Brewing :: Pool Side,7 Old Town Sq,Fort Collins,CO,US,80524,40.58724163,-105.0753772,"[{""day"":""Monday - Friday""
ObjectId("5c379680b96ec4c88ad19f06"),Westbound & Down Brewing Company,1617 Miner St,Idaho Springs,CO,US,80452,39.74178095,-105.5153457,"[{""day"":""Monday - Sunday""
ObjectId("5c379680b96ec4c88ad19f10"),Spangalang Brewery,2736 Welton St,Denver,CO,US,80205,39.7551,-104.9771,"[{""day"":""Monday - Tuesday
ObjectId("5c379680b96ec4c88ad19f12"),Dry Dock Brewing Company - South Dock,15120 E Hampden Ave,Aurora,CO,US,80014,39.6483602,-104.78917170000001,"[{""day"":""Monday - Thursday""
ObjectId("5c379680b96ec4c88ad19f2c"),Anheuser-Busch Brewery Experiences,2351 Busch Dr,Fort Collins,CO,US,80524,40.61995973,-105.00440479999999,"[{""day"":""Monday
ObjectId("5c379680b96ec4c88ad19f38"),Rock Bottom Brewery,1001 16th St,Denver,CO,US,80265,39.7474795,-104.994972,"[{""day"":""Monday - Sunday""
ObjectId("5c379680b96ec4c88ad19f42"),Denver Beer Co.,1695 Platte St,Denver,CO,US,80202,39.758293,-105.00718799999999,"[{""day"":""Monday - Thursday""
ObjectId("5c379680b96ec4c88ad19f49"),Breckenridge Colorado Craft,2220 Blake St,Denver,CO,US,80205,39.75638065,-104.99136029999998,"[{""day"":""Monday - Thursday
ObjectId("5c379680b96ec4c88ad19f52"),Fort Collins Brewery & Tavern,1020 E Lincoln Ave,Fort Collins,CO,US,80524,40.58916311,-105.058977,"[{""day"":""Monday - Thursday""
ObjectId("5c379680b96ec4c88ad19f56"),Verboten Brewing,127 E 5th St,Loveland,CO,US,80537,40.3966,-105.0755,"[{""day"":""Monday
ObjectId("5c379680b96ec4c88ad19f63"),The Old Mine,500 Briggs St.,Erie,CO,US,80516,40.04909,-105.0478,"[{""day"":""Tuesday - Thursday""
ObjectId("5c379680b96ec4c88ad19f82"),Lariat Lodge Brewing Company,27618 Fireweed Dr,Evergreen,CO,US,80439,39.638794,-105.3136,"[{""day"":""Sun""
ObjectId("5c379680b96ec4c88ad19f83"),Walnut Brewery,1123 Walnut St,Boulder,CO,US,80302,40.016872,-105.28043999999998,"[{""day"":""Monday - Thursday
ObjectId("5c379680b96ec4c88ad19f89"),Call to Arms Brewing Company,4526 Tennyson St,Denver,CO,US,80212,39.77887,-105.04363000000001,"[{""day"":""Monday - Thursday""
ObjectId("5c379680b96ec4c88ad19f94"),Dry Dock Brewing Co. - North Dock,2801 Tower Rd,Aurora,CO,US,80011,39.756603000000005,-104.77355,"[{""day"":""Thu""
ObjectId("5c379680b96ec4c88ad19f95"),Historian's Ale House,24 Broadway,Denver,CO,US,80203,39.71699,-104.987366,"[{""day"":""Monday - Friday""
ObjectId("5c379680b96ec4c88ad19f97"),Wynkoop Brewing Company,1634 18th St,Denver,CO,US,80202,39.753357,-104.99853999999999,"[{""day"":""Sun - Sat""
ObjectId("5c379680b96ec4c88ad19f9d"),Rock Bottom Restaurant & Brewery,9627 E County Line Rd,Englewood,CO,US,80112,39.567825,-104.87393999999999,"[{""day"":""Monday - Thursday
ObjectId("5c379680b96ec4c88ad19fa1"),Declaration Brewing,2030 S Cherokee St,Denver,CO,US,80223,39.679752,-104.990773,"[{""day"":""Monday - Wednesday""
ObjectId("5c379680b96ec4c88ad19fde"),Banded Oak Brewing Company,470 Broadway,Denver,CO,US,80203,39.723577,-104.987301,"[{""day"":""Sun""
ObjectId("5c379680b96ec4c88ad1a00e"),Brewery Rickoli Ltd.,4335 Wadsworth Blvd,Wheat Ridge,CO,US,80033,39.77579196,-105.08176090000002,"[{""day"":""Monday""
ObjectId("5c379680b96ec4c88ad1a025"),4 Noses Brewing Company,8855 W 116th Cir,Broomfield,CO,US,80021,39.90648251,-105.0984737,"[{""day"":""Monday - Tuesday""
ObjectId("5c379680b96ec4c88ad1a041"),Southern Sun Pub & Brewery,627 S Broadway St,Boulder,CO,US,80305,39.9843,-105.24922,"[{""day"":""Monday""
ObjectId("5c379680b96ec4c88ad1a043"),Wild Woods Brewery,5460 Conestoga Ct,Boulder,CO,US,80301,40.0164,-105.2267,"[{""day"":""Thursday""
ObjectId("5c379680b96ec4c88ad1a055"),Kokopelli Beer Company,8931 Harlan St,Westminster,CO,US,80031,39.858546999999994,-105.06508999999998,"[{""day"":""Monday - Tuesday
ObjectId("5c379680b96ec4c88ad1a058"),Diebolt Brewing Co.,3855 Mariposa St,Denver,CO,US,80211,39.769974,-105.00296000000002,"[{""day"":""Wednesday - Friday""
ObjectId("5c379680b96ec4c88ad1a063"),Manitou Brewing Company,725 Manitou Ave,Manitou Springs,CO,US,80829,38.85702,-104.91565,"[{""day"":""Monday - Thursday""
ObjectId("5c379680b96ec4c88ad1a07e"),Westminster Brewing Company,7655 W 108th Ave,Broomfield,CO,US,80021,39.89318092,-105.08311609999998,"[{""day"":""Sun""
ObjectId("5c379680b96ec4c88ad1a092"),Lowdown Brewery+kitchen,800 Lincoln St,Denver,CO,US,80203,39.729307,-104.98576000000001,"[{""day"":""Fri - Sat""
ObjectId("5c379680b96ec4c88ad1a094"),Stomp Them Grapes Llc,4731 Lipan St,Denver,CO,US,80211,39.782295,-105.001843,"[{""day"":""Thu""
ObjectId("5c379680b96ec4c88ad1a0b1"),Lyons Den Liquor,5332 Dtc Blvd Unit 500,Englewood,CO,US,80111,39.6183,-104.8894,"[{""day"":""Friday""
ObjectId("5c379680b96ec4c88ad1a0d4"),New Belgium Brewing,500 Linden St,Fort Collins,CO,US,80524,40.5934,-105.0669,"[{""day"":""Tuesday - Saturday""
ObjectId("5c379680b96ec4c88ad1a0ec"),Black Shirt Brewing Co.,3719 Walnut St,Denver,CO,US,80205,39.76978177,-104.9728693,"[{""day"":""Monday - Thursday
ObjectId("5c379680b96ec4c88ad1a0fb"),Sandlot Brewery,2161 Blake St,Denver,CO,US,80205,39.755753000000006,-104.99242,"[{""day"":""Mon - Fri""
ObjectId("5c379680b96ec4c88ad1a10e"),Epic Brewing Denver,3001 Walnut St,Denver,CO,US,80205,39.76317,-104.981319,"[{""day"":""Monday - Thursday""
ObjectId("5c379680b96ec4c88ad1a115"),Black Sky Brewery,490 Santa Fe Dr,Denver,CO,US,80204,39.72394,-104.99828000000001,"[{""day"":""Monday - Thursday
ObjectId("5c379680b96ec4c88ad1a11a"),Prost Brewing,2540 19th St,Denver,CO,US,80211,39.761379999999996,-105.00667,"[{""day"":""Monday - Thursday""
ObjectId("5c379680b96ec4c88ad1a11e"),Vine Street Pub & Brewery,1700 Vine St,Denver,CO,US,80206,39.7433781,-104.9619788,"[{""day"":""Monday""
ObjectId("5c379680b96ec4c88ad1a121"),Cannonball Creek Brewery Company,393 N. Washington Ave,Golden,CO,US,80403,39.768679999999996,-105.235146,"[{""day"":""Saturday""
ObjectId("5c379680b96ec4c88ad1a136"),Rock Bottom Restaurant & Brewery,14694 Orchard Parkway,Broomfield,CO,US,80020,39.962578,-104.99298,"[{""day"":""Sun - Thu""
ObjectId("5c379680b96ec4c88ad1a137"),C. B. & Potts/Bighorn Brewing Company,555 Zang St,Broomfield,CO,US,80021,39.928093,-105.133835,"[{""day"":""Sun - Sat""
ObjectId("5c379680b96ec4c88ad1a138"),Rockyard American Grill & Brewing Company,880 Castleton Rd,Castle Rock,CO,US,80109,39.40915,-104.86977399999999,"[{""day"":""Monday - Sunday""
ObjectId("5c379680b96ec4c88ad1a143"),Stapleton Tap House,8286 E Northfield Blvd.,Denver,CO,US,80238,39.780914,-104.89243,"[{""day"":""Sun""
ObjectId("5c379680b96ec4c88ad1a144"),BRU handbuilt ales & eats,5290 Arapahoe Ave,Boulder,CO,US,80303,40.01462,-105.22963999999999,"[{""day"":""Sun""
ObjectId("5c379680b96ec4c88ad1a145"),BJ's Restaurant & Brewhouse,14442 E Cedar Ave,Aurora,CO,US,80012,39.712368,-104.819824,"[{""day"":""Monday - Thursday
ObjectId("5c379680b96ec4c88ad1a146"),BJ's Restaurant and Brewhouse,10446 Town Center Dr,Broomfield,CO,US,80021,39.888157,-105.074265,"[{""day"":""Monday - Thursday
ObjectId("5c379680b96ec4c88ad1a195"),Rockyard American Grill & Brew,880 Castleton Rd,Castle Rock,CO,US,80109,39.409409000000004,-104.86916399999998,"[{""day"":""Sun""
ObjectId("5c379680b96ec4c88ad1a197"),Verboten Brewing,1550 Taurus Ct,Loveland,CO,US,80537,40.40070308,-105.05518490000001,"[{""day"":""Tue - Thu""
ObjectId("5c379680b96ec4c88ad1a1b2"),Crazy Mountain Brewery Tap Room,471 Kalamath St,Denver,CO,US,80204,39.723645,-105.000371,"[{""day"":""Sun""
ObjectId("5c379680b96ec4c88ad1a1ba"),Stem Ciders,2811 Walnut St,Denver,CO,US,80205,39.761694,-104.98383999999999,"[{""day"":""Friday""
ObjectId("5c379680b96ec4c88ad1a1eb"),Meadery Of The Rockies,3701 G Rd,Palisade,CO,US,81526,39.105545,-108.36599299999999,"[{""day"":""Mon - Sun""
ObjectId("5c379680b96ec4c88ad1a21f"),Kannah Creek Brewing Company,456 Kokopelli Blvd,Fruita,CO,US,81521,39.152848999999996,-108.73478600000001,"[{""day"":""Sun""
ObjectId("5c379680b96ec4c88ad1a222"),Rock Bottom Brewery - Centerra Promenade,6025 Sky Pond Dr,Loveland,CO,US,80538,40.410953000000006,-104.98978600000001,"[{""day"":""Sun""
ObjectId("5c379680b96ec4c88ad1a252"),Compass Cider House Inc,216 N College Ave,Fort Collins,CO,US,80524,40.5895,-105.0766,"[{""day"":""Sunday""
ObjectId("5c379680b96ec4c88ad1a253"),Left Hand Brewing Co,1265 Boston Ave,Longmont,CO,US,80501,40.1586,-105.1155,"[{""day"":""Sunday""
ObjectId("5c379680b96ec4c88ad1a263"),J Wells Brewery,2516 49th St,Boulder,CO,US,80301,40.0237,-105.2378,"[{""day"":""Mon - Fri""
ObjectId("5c379680b96ec4c88ad1a264"),Liquid Mechanics,297 N US Highway 287,Lafayette,CO,US,80026,39.9995,-105.1036,"[{""day"":""Sun""
ObjectId("5c379680b96ec4c88ad1a266"),Pateros Creek Brewing Co,242 N College Ave,Fort Collins,CO,US,80524,40.5901,-105.0765,"[{""day"":""Monday - Wednesday""
ObjectId("5c379680b96ec4c88ad1a308"),Kickapoo Tavern,129 River Run Rd,Dillon,CO,US,80435,39.60652073,-105.94207279999999,"[{""day"":""Monday - Wednesday""
ObjectId("5c379680b96ec4c88ad1a32d"),Liquid Mechanics,297 US-287,Lafayette,CO,US,80026,39.99978212,-105.1033668,"[{""day"":""Friday""
ObjectId("5c379680b96ec4c88ad1a339"),Barrels & Bottles,600 12th St,Golden,CO,US,80401,39.75654,-105.21914,"[{""day"":""Friday - Saturday""
ObjectId("5c379680b96ec4c88ad1a355"),Renegade Brewing Co.,925 W 9th Ave,Denver,CO,US,80204,39.730644,-104.99911499999999,"[{""day"":""Monday - Thursday""
ObjectId("5c379680b96ec4c88ad1a382"),Lost Highway Brewing Co,520 E Colfax Ave,Denver,CO,US,80203,39.739902,-104.980073,"[{""day"":""Wednesday""
ObjectId("5c379680b96ec4c88ad1a38a"),Barnett and Son Brewing Co,18425 Pony Express Dr,Parker,CO,US,80134,39.521865000000005,-104.775341,"[{""day"":""Fri""
ObjectId("5c379680b96ec4c88ad1a3a6"),Grimm Brothers Taproom,623 Denver Ave Loveland Co,Loveland,CO,US,80537,40.39689732,-105.04674890000001,"[{""day"":""Sun""
ObjectId("5c379680b96ec4c88ad1a3ba"),Avery Brewing Co,5763 Arapahoe Ave,Boulder,CO,US,80303,40.014843,-105.218724,"[{""day"":""Tue""
ObjectId("5c379680b96ec4c88ad1a3c5"),Tasty Weasel,1800 Pike Rd,Longmont,CO,US,80501,40.139056,-105.12188700000002,"[{""day"":""Sun""
ObjectId("5c379680b96ec4c88ad1a3d7"),Aspen Brewing Co,304 E Hopkins Ave,Aspen,CO,US,81611,39.19032670000001,-106.82032779999999,"[{""day"":""Monday ""
ObjectId("5c379680b96ec4c88ad1a3e4"),Highland Water,1338 S Valentia St,Denver,CO,US,80247,39.692422,-104.891554,"[{""day"":""Sunday ""
ObjectId("5c379680b96ec4c88ad1a40b"),Pug Ryan's Steakhouse & Brew,104 Village Pl,Dillon,CO,US,80435,39.628149,-106.046323,"[{""day"":""Fri""
ObjectId("5c379680b96ec4c88ad1a413"),1933 Brewing Company,4025 S Mason,Fort Collins,CO,US,80525,40.53153378,-105.0799763,"[{""day"":""Tue - Fri""
ObjectId("5c379680b96ec4c88ad1a43c"),Brewery Rickoli,4335 Wadsworth Blvd.,Wheat Ridge,CO,US,80033-4621,39.77565,-105.08163,"[{""day"":""Sun""
ObjectId("5c379680b96ec4c88ad1a445"),Grimm Brothers Brewhouse Llc,547 Denver Ave,Loveland,CO,US,80537,40.3974,-105.0457,"[{""day"":""Thu""
ObjectId("5c379680b96ec4c88ad1a45e"),Fiction Beer Company,7101 E Colfax Ave,Denver,CO,US,80220,39.74032636,-104.9056578,"[{""day"":""Tuesday ""
ObjectId("5c379680b96ec4c88ad1a477"),Black Bottle Brewery,1611 S College Ave,Fort Collins,CO,US,80525,40.566476,-105.07721699999999,"[{""day"":""Saturday""
ObjectId("5c379680b96ec4c88ad1a4db"),Plum Creek Winery,3708 G Rd,Palisade,CO,US,81526,39.106927,-108.36566699999999,"[{""day"":""Sun""
ObjectId("5c379680b96ec4c88ad1a4dc"),Reeder Mesa Vineyards,7799 Reeder Mesa Rd,Whitewater,CO,US,81527,38.965865,-108.31436000000001,"[{""day"":""Wed - Sat""
ObjectId("5c379680b96ec4c88ad1a4e6"),Big Choice Brewing,7270 W 118th Pl,Broomfield,CO,US,80020,39.9104,-105.07845,"[{""day"":""Fri - Sat""
ObjectId("5c379680b96ec4c88ad1a51c"),Colorado Mountain Brewery,1110 Interquest Pkwy,Colorado Springs,CO,US,80921,38.99343,-104.81188,"[{""day"":""Sun - Thu""
ObjectId("5c379680b96ec4c88ad1a546"),Pikes Peak Brewing Company,1756 Lake Woodmoor Dr,Monument,CO,US,80132,39.09539673,-104.8603392,"[{""day"":""Monday - Wednesday""
ObjectId("5c379680b96ec4c88ad1a556"),Corner Liquors,117 N 6th St,Windsor,CO,US,80550,40.481590000000004,-104.90565,"[{""day"":""Monday - Friday""
ObjectId("5c379680b96ec4c88ad1a55a"),Upslope Brewery,1898 S Flatiron Ct,Boulder,CO,US,80301,40.02029816,-105.21851809999998,"[{""day"":""Monday - Sunday""
ObjectId("5c379680b96ec4c88ad1a56f"),Carbondale Beer Works,647 Main St,Carbondale,CO,US,81623,39.4006,-107.2131,"[{""day"":""Sun""
ObjectId("5c379680b96ec4c88ad1a579"),River North Brewery,6021 Washington St,Denver,CO,US,80216,39.80638,-104.97809,"[{""day"":""Friday""
ObjectId("5c379680b96ec4c88ad1a589"),BJ's Restaurant and Brewhouse,5150 N Nevada Ave,Colorado Springs,CO,US,80918,38.90341,-104.817894,"[{""day"":""Monday - Thursday
ObjectId("5c379680b96ec4c88ad1a594"),Elk Mountain Brewing,18921 Plaza Dr,Parker,CO,US,80134,39.526997200000004,-104.77020300000001,"[{""day"":""Sunday""
ObjectId("5c379680b96ec4c88ad1a5b0"),Rock Bottom Restaurant & Brewery,Concourse C near C32,Denver,CO,US,80249,39.86305720000001,-104.67608299999999,"[{""day"":""Friday""
ObjectId("5c379680b96ec4c88ad1a5be"),Denver Chop House & Brewery,at Concourse A,Denver,CO,US,80202,39.85380962,-104.67380759999999,"[{""day"":""Monday - Saturday""
ObjectId("5c379680b96ec4c88ad1a5bf"),FERM��NTRA,1715 E Evans Ave,Denver,CO,US,80210,39.67862122,-104.96702749999999,"[{""day"":""Monday - Thursday""
ObjectId("5c379680b96ec4c88ad1a5e0"),Dillon Dam Brewery,100 Little Dam Rd.,Silverthorne,CO,US,80498,39.62758143,-106.0604239,"[{""day"":""Monday - Sunday""
ObjectId("5c379680b96ec4c88ad1a631"),Crow Hop Brewing,217 E 3rd St,Loveland,CO,US,80537,40.3946,-105.0741,"[{""day"":""Monday - Thursday""
ObjectId("5c379680b96ec4c88ad1a642"),Bristol Brewing Company,1604 S Cascade Ave,Colorado Springs,CO,US,80905-2237,38.810994,-104.826612,"[{""day"":""Monday - Thursday""
ObjectId("5c379680b96ec4c88ad1a667"),Grandma's House,1710 S Broadway,Denver,CO,US,80210,39.68551286,-104.9873892,"[{""day"":""Monday - Thursday""
ObjectId("5c379680b96ec4c88ad1a668"),CB & Potts,43 Centennial Blvd,Littleton,CO,US,80129,39.5628,-104.9884,"[{""day"":""Monday - Thursday""
ObjectId("5c379680b96ec4c88ad1a66a"),Wapiti Colorado Pub,247 W Elkhorn Ave,Estes Park,CO,US,80517,40.37633418,-105.52599909999999,"[{""day"":""Monday - Sunday""
ObjectId("5c379680b96ec4c88ad1a670"),Zephyr Brewing Co.,2601 Walnut St,Denver,CO,US,80205,39.7593,-104.9863,"[{""day"":""Wednesday""
ObjectId("5c379680b96ec4c88ad1a68d"),Great Divide Brewing Co.,2201 Arapahoe St,Denver,CO,US,80205,39.7536,-104.9885,"[{""day"":""Monday - Tuesday
ObjectId("5c379680b96ec4c88ad1a6ad"),Ratio Beerworks,2920 Larimer St,Denver,CO,US,80205,39.7615,-104.98100000000001,"[{""day"":""Monday - Wednesday""
ObjectId("5c379680b96ec4c88ad1a6b9"),Golden City Brewery,920 12th St,Golden,CO,US,80401,39.754673,-105.22368,"[{""day"":""Monday - Sunday""
ObjectId("5c379680b96ec4c88ad1a6bb"),Hogshead Brewery,4460 W. 29th Ave,Denver,CO,US,80212,39.75821,-105.04503999999999,"[{""day"":""Monday - Wednesday""
ObjectId("5c379680b96ec4c88ad1a6bd"),Mas Kaos Pizzeria & Taqueria,4526 Tennyson St,Denver,CO,US,80212,39.778929,-105.043609,"[{""day"":""Monday
ObjectId("5c379680b96ec4c88ad1a6c0"),Colorado Plus,6995 W 38th Ave,Wheat Ridge,CO,US,80033,39.769665,-105.07413500000001,"[{""day"":""Saturday""
ObjectId("5c379680b96ec4c88ad1a6eb"),Jagged Mountain Brewery,1139 20th St,Denver,CO,US,80202,39.75226,-104.99139,"[{""day"":""Monday - Thursday""
ObjectId("5c379680b96ec4c88ad1a6ef"),Mountain Sun Pub and Brewery,1535 Pearl St,Boulder,CO,US,80302,40.01911,-105.27526999999999,"[{""day"":""Monday - Sunday""
ObjectId("5c379680b96ec4c88ad1a6f1"),Breckenridge Brewery and BBQ,471 Kalamath St,Denver,CO,US,80204,39.72361,-105.00018999999999,"[{""day"":""Mon - Sat""
ObjectId("5c379680b96ec4c88ad1a6f4"),Scrumpy's,215 N College Ave,Fort Collins,CO,US,80524,40.589490000000005,-105.07749,"[{""day"":""Thursday""
ObjectId("5c379680b96ec4c88ad1a6fa"),River North Brewery,2401 Blake St,Denver,CO,US,80205,39.7584,-104.9894,"[{""day"":""Sun""
ObjectId("5c379680b96ec4c88ad1a71a"),Avery Brewing,5757 Arapahoe Ave,Boulder,CO,US,80303,40.014843,-105.218749,"[{""day"":""Tue""
ObjectId("5c379680b96ec4c88ad1a747"),Former Future,1290 S Broadway,Denver,CO,US,80210,39.69339001,-104.9872123,"[{""day"":""Thu""
ObjectId("5c379680b96ec4c88ad1a753"),Storm Peak Brewing Company,1744 Lincoln Ave,Steamboat Springs,CO,US,80487,40.491417,-106.84291999999999,"[{""day"":""Sun""
ObjectId("5c379680b96ec4c88ad1a762"),Our Mutual Friend Malt & Brew,2810 Larimer St,Denver,CO,US,80205,39.760505,-104.982564,"[{""day"":""Sat""
ObjectId("5c379680b96ec4c88ad1a780"),Brewery Bar III,9228 Park Meadows Dr,Lone Tree,CO,US,80124,39.554344,-104.8831,"[{""day"":""Friday""
ObjectId("5c379680b96ec4c88ad1a7aa"),38 State Brewery,8071 S Broadway,Littleton,CO,US,80122,39.56906074,-104.98951159999999,"[{""day"":""Fri""
ObjectId("5c379680b96ec4c88ad1a7ac"),Suds Brothers Brewery,127 E Aspen Ave Fruita Co,Fruita,CO,US,81521,39.15896214,-108.73273200000001,"[{""day"":""Mon""
ObjectId("5c379680b96ec4c88ad1a7b4"),Asher Brewing Company,4699 Nautilus Ct S,Boulder,CO,US,80301,40.06031553,-105.20598329999999,"[{""day"":""Tue""
ObjectId("5c379680b96ec4c88ad1a7be"),Wit���s End Brewery,2505 W 2nd Ave,Denver,CO,US,80219,39.72079535,-105.017597,"[{""day"":""Fri - Sat""
ObjectId("5c379680b96ec4c88ad1a7c1"),Molson Coors Brewing Company,300 12th St,Golden,CO,US,80401,39.75604532,-105.21747820000002,"[{""day"":""Sat""
ObjectId("5c379680b96ec4c88ad1a7dc"),Molly's Spirits,5809 W 44th Ave,Denver,CO,US,80212,39.77668,-105.06026000000001,"[{""day"":""Monday - Tuesday""
ObjectId("5c379680b96ec4c88ad1a80e"),The Library Sports Grille & Brewery,78491 Us Highway 40,Winter Park,CO,US,80482,39.92374184,-105.7863006,"[{""day"":""Sat""
ObjectId("5c379680b96ec4c88ad1a817"),Kannah Creek Brewing Company,1960 N 12th St,Grand Junction,CO,US,81501,39.08531664,-108.55200829999998,"[{""day"":""Fri - Sat""
ObjectId("5c379680b96ec4c88ad1a842"),Butcherknife Brewing Company,2875 Elk River Rd,Steamboat Springs,CO,US,80487,40.501596,-106.856733,"[{""day"":""Fri""
ObjectId("5c379680b96ec4c88ad1a848"),Big Beaver Brewing Co,2707 W Eisenhower Blvd,Loveland,CO,US,80537,40.4077239,-105.1144095,"[{""day"":""Fri""
ObjectId("5c379680b96ec4c88ad1a865"),Blue Spruce Brewery,4151 E County Line Rd,Littleton,CO,US,80122,39.56612,-104.93783,"[{""day"":""Mon - Wed""
ObjectId("5c379680b96ec4c88ad1a86a"),Finkel & Garf Brewing Co.,5455 Spine Rd,Boulder,CO,US,80301,40.07386198,-105.2022923,"[{""day"":""Sun""
ObjectId("5c379680b96ec4c88ad1a86f"),Industrial Revolution Brewing,285 Cheeseman St,Erie,CO,US,80516,40.05167,-105.048498,"[{""day"":""Sat""
ObjectId("5c379680b96ec4c88ad1a870"),Weldwerks Brewing Co,508 8th Ave,Greeley,CO,US,80631,40.428475,-104.690657,"[{""day"":""Mon - Thu""
ObjectId("5c379680b96ec4c88ad1a875"),Twelve Degree Brewing,Main St,Louisville,CO,US,80027,39.97825844,-105.1319972,"[{""day"":""Sat""
ObjectId("5c379680b96ec4c88ad1a89b"),Crystal Springs Brewing Company,657 S Taylor Ave,Louisville,CO,US,80027,39.96075516,-105.11998829999999,"[{""day"":""Tuesday - Friday""
ObjectId("5c379680b96ec4c88ad1a8b7"),Odell Brewing Company,800 E Lincoln Ave,Fort Collins,CO,US,80524,40.5888,-105.0625,"[{""day"":""Monday - Tuesday
ObjectId("5c379680b96ec4c88ad1a8b8"),Iron Bird Brewing Co,402 S Nevada Ave,Colorado Springs,CO,US,80903,38.828,-104.8226,"[{""day"":""Sun""
ObjectId("5c379680b96ec4c88ad1a8bf"),Horse & Dragon Brewing Company,124 Racquette Dr,Fort Collins,CO,US,80524,40.58942667,-105.0459898,"[{""day"":""Monday - Sunday""
ObjectId("5c379680b96ec4c88ad1a8c0"),Coopersmith's Pub & Brewery,5 Old Town Sq,Fort Collins,CO,US,80524,40.5873,-105.0764,"[{""day"":""Sun""
ObjectId("5c379680b96ec4c88ad1a8c2"),Twelve Degree Brewing,820 Main St,Louisville,CO,US,80027,39.978,-105.1321,"[{""day"":""Saturday""
ObjectId("5c379680b96ec4c88ad1a8c5"),Dry Dock Brewing Co - South Dock,15120 E Hampden Ave,Aurora,CO,US,80014,39.653,-104.8119,"[{""day"":""Thursday""
ObjectId("5c379680b96ec4c88ad1a8cd"),Odd 13 Brewing INC,301 E Simpson St,Lafayette,CO,US,80026,39.9982,-105.088,"[{""day"":""Sunday""
ObjectId("5c379680b96ec4c88ad1a8cf"),Tommyknocker Brewery & Pub,1401 Miner St,Idaho Springs,CO,US,80452,39.7418,-105.5178,"[{""day"":""Sun - Sat""
ObjectId("5c379680b96ec4c88ad1a8d2"),Equinox Brewing Co,133 Remington St,Fort Collins,CO,US,80524,40.5863,-105.0758,"[{""day"":""Thu""
ObjectId("5c379680b96ec4c88ad1a92c"),Jessup Farm Barrel House,1921 Jessup Dr,Fort Collins,CO,US,80525,40.562909999999995,-105.03719,"[{""day"":""Monday - Thursday""
ObjectId("5c379680b96ec4c88ad1a982"),Platt Park Brewing Co,1875 S. Pearl St.,Denver,CO,US,80210,39.682567,-104.980497,"[{""day"":""Monday - Thursday""
ObjectId("5c379680b96ec4c88ad1a983"),Mountain Toad Brewing,900 Washington Ave,Golden,CO,US,80401,39.758164,-105.224147,"[{""day"":""Monday - Thursday""
ObjectId("5c379680b96ec4c88ad1a998"),Baere Brewing Co.,320 N Broadway,Denver,CO,US,80203,39.721387,-104.986952,"[{""day"":""Tuesday - Friday""
ObjectId("5c379680b96ec4c88ad1a9a0"),High Hops Brewery,6461 State Highway 392,Windsor,CO,US,80550,40.47948,-104.93674399999999,"[{""day"":""Monday""
ObjectId("5c379680b96ec4c88ad1a9a1"),Ursula Brewery,2101 N Ursula St Unit 10,Aurora,CO,US,80045,39.748367,-104.83818000000001,"[{""day"":""Monday - Wednesday""
ObjectId("5c379680b96ec4c88ad1a9d0"),CooperSmith's Pub & Brewing :: Pubside,5 Old Town Sq,Fort Collins,CO,US,80524,40.58724163,-105.0756991,"[{""day"":""Monday - Thursday
ObjectId("5c379680b96ec4c88ad1a9e8"),BJ's Restaurant and Brewhouse,1690 28th St,Boulder,CO,US,80301,40.017753000000006,-105.25781699999999,"[{""day"":""Monday - Sunday""
ObjectId("5c379680b96ec4c88ad1a9ea"),Walnut Creek Town Center,7064 W 105th Ave,Broomfield,CO,US,80021,39.88724385,-105.0762656,"[{""day"":""Saturday""
ObjectId("5c379680b96ec4c88ad1a9eb"),Rock Bottom Brewery,10633 Westminster Blvd,Broomfield,CO,US,80020,39.88925351,-105.0693297,"[{""day"":""Monday - Thursday
ObjectId("5c379680b96ec4c88ad1aa0f"),Gordon Biersch Brewery Restaurant,1 W Flatiron Crossing Dr,Broomfield,CO,US,80021,39.93066919,-105.1352119,"[{""day"":""Friday - Saturday""
ObjectId("5c379680b96ec4c88ad1aa27"),Twisted Pine Brewing Company,3201 Walnut St,Boulder,CO,US,80301,40.02061,-105.25113,"[{""day"":""Monday - Thursday""
ObjectId("5c379680b96ec4c88ad1aa3c"),Chain Reaction Brewery,902 S Lipan St,Denver,CO,US,80223,39.69975735,-105.0013854,"[{""day"":""Saturday""
ObjectId("5c379680b96ec4c88ad1aa84"),The Pub at the Rockies Brewing Company,2880 Wilderness Pl,Boulder,CO,US,80301,40.02669,-105.24753600000001,"[{""day"":""Mon - Fri""
ObjectId("5c379680b96ec4c88ad1aa8c"),Crooked Stave Brewery,3350 Brighton Blvd,Denver,CO,US,80216,39.768772,-104.97957,"[{""day"":""Sun - Tue""
ObjectId("5c379680b96ec4c88ad1aa9e"),C.B. & Potts,1415 W Elizabeth St,Fort Collins,CO,US,80521,40.5742,-105.1025,"[{""day"":""Monday - Saturday""
ObjectId("5c379680b96ec4c88ad1aaaf"),Gordon Biersch Brewery Restaurant,1 W Flatiron Cir,Broomfield,CO,US,80021,39.929885999999996,-105.131134,"[{""day"":""Sun""
ObjectId("5c379680b96ec4c88ad1aab0"),CB & Potts Restaurant and Brewery,6575 S. Greenwood Plaza Blvd,Englewood,CO,US,80111,39.59754,-104.89477,"[{""day"":""Sun""
ObjectId("5c379680b96ec4c88ad1aab9"),Pints Pub,221 W 13th Ave,Denver,CO,US,80204,39.737026,-104.99078999999999,"[{""day"":""Monday - Tuesday
ObjectId("5c379680b96ec4c88ad1aaba"),Wonderland Brewing Co,5450 W 120th Ave,Broomfield,CO,US,80020,39.913321999999994,-105.05585500000001,"[{""day"":""Monday - Thursday""
ObjectId("5c379680b96ec4c88ad1aac2"),CB and Potts,555 Zang St,Broomfield,CO,US,80020,39.966526,-105.04556000000001,"[{""day"":""Monday - Sunday""
ObjectId("5c379680b96ec4c88ad1aac8"),Living the Dream Brewing Co,12305 Dumont Way,Littleton,CO,US,80125,39.54029,-105.03995,"[{""day"":""Wed - Thu
ObjectId("5c379680b96ec4c88ad1ab1c"),Oskar Blues Brewery,1800 Pike Rd,Longmont,CO,US,80501,40.1379,-105.12147,"[{""day"":""Monday - Sunday""
ObjectId("5c379680b96ec4c88ad1ab20"),Fate Brewing Company,1600 38th St.,Boulder,CO,US,80301-2610,40.015095,-105.24573500000001,"[{""day"":""Mon""
ObjectId("5c379680b96ec4c88ad1ab33"),Rueben's Burger Bistro,1800 Broadway,Boulder,CO,US,80302,40.01687138,-105.2795672,"[{""day"":""Monday - Sunday""
ObjectId("5c379680b96ec4c88ad1ab37"),Station 26 Brewing Company,7045 E 38th Ave,Denver,CO,US,80207,39.769569399999995,-104.90596770000002,"[{""day"":""Monday - Thursday""
ObjectId("5c379680b96ec4c88ad1ab44"),Crazy Mountain Brewing Company,439 Edwards Access Road 102,Edwards,CO,US,81632,39.648512,-106.587926,"[{""day"":""Sun""
ObjectId("5c379680b96ec4c88ad1ab51"),Powder Keg Brewing Company,101 2nd Ave,Niwot,CO,US,80544-1047,40.10331669,-105.17287549999999,"[{""day"":""Sun""
ObjectId("5c379680b96ec4c88ad1ab6e"),300 Suns Brewing,335 1st Ave,Longmont,CO,US,80501,40.15996795,-105.1009003,"[{""day"":""Fri - Sat""
ObjectId("5c379680b96ec4c88ad1ab95"),Edgewater Brewery,905 Struthers Ave,Grand Junction,CO,US,81501,39.055174,-108.557323,"[{""day"":""Saturday""
ObjectId("5c379680b96ec4c88ad1ab96"),Palisade Brewery,200 Peach Ave,Palisade,CO,US,81526,39.111187,-108.3539,"[{""day"":""Sun - Thu""
ObjectId("5c379680b96ec4c88ad1abed"),Ska Brewing Co. World Headquarters,225 Girard St,Durango,CO,US,81303,37.23879215,-107.8759535,"[{""day"":""Sat""
ObjectId("5c379680b96ec4c88ad1abfb"),Mu Brewery,9735 E Colfax Ave,Aurora,CO,US,80010,39.74022,-104.8748,"[{""day"":""Sun""
ObjectId("5c379680b96ec4c88ad1ac00"),Aspen Brewing Company,304 E Hopkins Ave,Aspen,CO,US,81611,39.190106,-106.820376,"[{""day"":""Sun""
ObjectId("5c379680b96ec4c88ad1ac19"),Three Four Beer,829 S Shields St,Fort Collins,CO,US,80521,40.57601,-105.096046,"[{""day"":""Mon - Fri""
ObjectId("5c379680b96ec4c88ad1ac21"),Elevation Beer Company,115 Pahlone Pkwy,Poncha Springs,CO,US,81242,38.51803594,-106.0653591,"[{""day"":""Sat - Sun""
ObjectId("5c379680b96ec4c88ad1ac39"),The Dusty Boot,1099 Capitol St,Eagle,CO,US,81631,39.641364,-106.831281,"[{""day"":""Monday - Sunday""
ObjectId("5c379680b96ec4c88ad1ac5d"),Fate Brewing Company,1600 38th St,Boulder,CO,US,80301,40.015041,-105.24627199999999,"[{""day"":""Mon - Fri""
ObjectId("5c379680b96ec4c88ad1ac5e"),Sanitas Brewing Company,3550 Frontier Ave,Boulder,CO,US,80301,40.02149014,-105.24735690000001,"[{""day"":""Sat - Sun""
ObjectId("5c379680b96ec4c88ad1ac66"),Great Frontier Brewing Co,2010 S Oak St,Denver,CO,US,80227,39.680602,-105.11787199999999,"[{""day"":""Sun""
ObjectId("5c379680b96ec4c88ad1ac6a"),Wild Mountain Smokehouse & Brewery,70 E 1st St,Nederland,CO,US,80466,39.9620242,-105.50984109999999,"[{""day"":""Mon - Sun""
ObjectId("5c379680b96ec4c88ad1ac7b"),Trve Brewing Co.,227 Broadway,Denver,CO,US,80203,39.71993776,-104.98769579999998,"[{""day"":""Sunday""
ObjectId("5c379680b96ec4c88ad1aca7"),Launch Pad Brewery,884 S Buckley Rd,Aurora,CO,US,80017,39.700382,-104.79087,"[{""day"":""Wednesday - Thursday""
ObjectId("5c379680b96ec4c88ad1acae"),Bootstrap Brewing,6778 N 79th St,Longmont,CO,US,80503,40.0972,-105.1691,"[{""day"":""Monday - Sunday""
ObjectId("5c379680b96ec4c88ad1ad0a"),Bubbles Liquor World,675 Genoa Way,Castle Rock,CO,US,80109,39.4105,-104.87,"[{""day"":""Monday - Saturday""
ObjectId("5c379680b96ec4c88ad1ad11"),Berthoud Brewing Co,450 S 8th St,Berthoud,CO,US,80513,40.3044,-105.085,"[{""day"":""Sun""
ObjectId("5c379680b96ec4c88ad1ad12"),Happy Leaf Kombucha,3519 Brighton Blvd,Denver,CO,US,80216,39.771,-104.9785,"[{""day"":""Mon - Sun""
ObjectId("5c379680b96ec4c88ad1ad18"),Avery Brewing Co,4910 Nautilus Ct N,Boulder,CO,US,80303,40.0627,-105.2033,"[{""day"":""Monday - Sunday""
ObjectId("5c379680b96ec4c88ad1ad3e"),Walter Brewing Co,126 Oneida St,Pueblo,CO,US,81003,38.26249,-104.60996999999999,"[{""day"":""Tuesday - Wednesday""
ObjectId("5c379680b96ec4c88ad1ad67"),Snowbank Brewing,225 9th St,Fort Collins,CO,US,80524,40.5899,-105.0587,"[{""day"":""Monday""
ObjectId("5c379680b96ec4c88ad1ad73"),Crazy Mountain Brewing Company,439 Edwards Access Rd,Edwards,CO,US,81632,39.648243,-106.58825,"[{""day"":""Monday - Saturday""
ObjectId("5c379680b96ec4c88ad1ad79"),Blue Moon Brewery at The Sandlot,2161 Blake St,Denver,CO,US,80205,39.75610844,-104.9924615,"[{""day"":""Tuesday""
ObjectId("5c379680b96ec4c88ad1ada9"),Gore Range Brewery,0105 Edwards Village Blvd,Edwards,CO,US,81632,39.64384721,-106.59632409999999,"[{""day"":""Monday - Sunday""
ObjectId("5c379680b96ec4c88ad1adbd"),Shamrock Brewing,108 W 3rd St,Pueblo,CO,US,81003,38.269634,-104.607765,"[{""day"":""Sun""
ObjectId("5c379680b96ec4c88ad1adc1"),Lone Tree Brewery Co.,8222 Park Meadows Dr,Lone Tree,CO,US,80124,39.56258375,-104.89280819999999,"[{""day"":""Monday - Wednesday""
ObjectId("5c379680b96ec4c88ad1adec"),Bull & Bush Pub & Brewery,4700 E Cherry Creek South Dr,Denver,CO,US,80246,39.70308124,-104.93248870000001,"[{""day"":""Monday - Friday""
ObjectId("5c379680b96ec4c88ad1adf4"),Dad & Dudes Brewery,6730 S Cornerstar Way,Aurora,CO,US,80016,39.5938,-104.8061,"[{""day"":""Mon - Sun""
ObjectId("5c379680b96ec4c88ad1adfc"),Saint Patrick's Brewing Company,2842 W Bowles Ave,Littleton,CO,US,80120,39.613064,-105.02325400000001,"[{""day"":""Thursday""
ObjectId("5c379680b96ec4c88ad1ae06"),City Star Brewing,321 Mountain Ave,Berthoud,CO,US,80513,40.3051,-105.079,"[{""day"":""Monday - Friday""
ObjectId("5c379680b96ec4c88ad1ae34"),Red Leg Brewing Company,4630 Forge Rd,Colorado Springs,CO,US,80907,38.897987,-104.84101899999999,"[{""day"":""Monday - Thursday""
ObjectId("5c379680b96ec4c88ad1ae3a"),Strange Craft Beer Company,1330 Zuni St,Denver,CO,US,80204,39.73711631,-105.01480079999999,"[{""day"":""Monday - Thursday""
ObjectId("5c379680b96ec4c88ad1ae45"),Estes Park Brewery,470 Prospect Village Dr,Estes Park,CO,US,80517,40.3714,-105.5261,"[{""day"":""Wednesday""
ObjectId("5c379680b96ec4c88ad1ae47"),Copper Rail Grill & Bar,174 S Main St,Brighton,CO,US,80601,39.98382695,-104.8220036,"[{""day"":""Monday""
ObjectId("5c379680b96ec4c88ad1ae48"),Little Machine Beer,2924 W 20th Ave,Denver,CO,US,80211,39.74741737,-105.0242967,"[{""day"":""Monday - Thursday""
ObjectId("5c379680b96ec4c88ad1ae50"),BJ's Restaurant and Brewhouse,2670 E Harmony Rd,Fort Collins,CO,US,80528,40.5234,-105.0284,"[{""day"":""Monday - Thursday
ObjectId("5c379680b96ec4c88ad1ae54"),Mockery Brewing,3501 Delgany St,Denver,CO,US,80216,39.7712,-104.9797,"[{""day"":""Monday - Thursday""
ObjectId("5c379680b96ec4c88ad1ae55"),Loveland Aleworks,118 W 4th St,Loveland,CO,US,80537,40.3955,-105.0775,"[{""day"":""Monday - Thursday
ObjectId("5c379680b96ec4c88ad1ae57"),Great Divide Barrel Bar,1812 35th St,Denver,CO,US,80216,39.7702599,-104.97918700000001,"[{""day"":""Monday - Tuesday
ObjectId("5c379680b96ec4c88ad1ae59"),Wynkoop Brewing Co.,1634 18th St,Denver,CO,US,80202,39.75357449,-104.99835490000001,"[{""day"":""Monday - Saturday""
ObjectId("5c379680b96ec4c88ad1ae70"),Two22 Brew,4550 S Reservoir Rd,Aurora,CO,US,80015,39.635203999999995,-104.75914,"[{""day"":""Monday - Thursday""
ObjectId("5c379680b96ec4c88ad1ae80"),Jose O'Sheas,385 Union Blvd,Denver,CO,US,80228,39.72232,-105.13297,"[{""day"":""Monday - Thursday""
ObjectId("5c379680b96ec4c88ad1ae81"),De Steeg Brewing,4342 Tennyson St,Denver,CO,US,80212,39.77606,-105.04398,"[{""day"":""Wednesday - Friday""
ObjectId("5c379680b96ec4c88ad1ae82"),Balistreri Vineyards,1946 E 66th Ave,Denver,CO,US,80229,39.81588,-104.96480600000001,"[{""day"":""Monday - Sunday""
ObjectId("5c379680b96ec4c88ad1ae83"),Brewery Bar II,150 Kalamath St,Denver,CO,US,80223,39.719337,-104.99998000000001,"[{""day"":""Mon - Sat""
ObjectId("5c379680b96ec4c88ad1ae93"),Brewing Market,2610 Baseline Rd,Boulder,CO,US,80305,40.0002838,-105.2608955,"[{""day"":""Friday""
ObjectId("5c379680b96ec4c88ad1ae99"),Jamba Juice,14237 W Colfax Ave,Golden,CO,US,80401,39.736959999999996,-105.160425,"[{""day"":""Monday - Friday""
ObjectId("5c379680b96ec4c88ad1aebe"),The Alibi,1007 Broad St,Milliken,CO,US,80543,40.330296000000004,-104.85637,"[{""day"":""Fri""
ObjectId("5c379680b96ec4c88ad1aec1"),Grapes and Hops Liquor Store,6560 W 29th St,Greeley,CO,US,80634,40.389586,-104.785545,"[{""day"":""Sun""
ObjectId("5c379680b96ec4c88ad1aecb"),Horsefly Brewing Company,E Main St,Montrose,CO,US,81401,38.482764,-107.87151000000001,"[{""day"":""Mon - Thu
ObjectId("5c379680b96ec4c88ad1af46"),Asher Brewing Co,4699 Nautilus Ct S,Boulder,CO,US,80301,40.059835,-105.204935,"[{""day"":""Sat""
ObjectId("5c379680b96ec4c88ad1af50"),La Maroma Oyster Bar & Grill,Enrique Snches Alonso 2077 Desarrollo Urbano Tres Rios,Broomfield,CO,US,80020,24.82202886,-107.40047690000002,"[{""day"":""Mon - Sun""
ObjectId("5c379680b96ec4c88ad1af60"),The Very Nice Brewing Company,20 Lakeview Dr,Nederland,CO,US,80466,39.96005,-105.50916799999999,"[{""day"":""Mon""
ObjectId("5c379680b96ec4c88ad1af72"),Colorado Cider Company,2560 W 2nd Ave,Denver,CO,US,80219,39.71925849,-105.01924620000001,"[{""day"":""Friday""
ObjectId("5c379680b96ec4c88ad1af73"),Brew 'n Q,2801 Walnut Saint C,Denver,CO,US,80205,39.761323,-104.983802,"[{""day"":""Mon""
ObjectId("5c379680b96ec4c88ad1afaa"),Front Range Brewing Company,400 W South Boulder Rd,Lafayette,CO,US,80026,39.986897,-105.09451999999999,"[{""day"":""Mon - Thu""
ObjectId("5c379680b96ec4c88ad1afc2"),Colorado Boy Pub & Brewery,602 Clinton St,Ridgway,CO,US,81432,38.15229,-107.75781699999999,"[{""day"":""Saturday""
ObjectId("5c379680b96ec4c88ad1aff2"),O'brien's Pub,726 Main St,Ouray,CO,US,81427,38.024207000000004,-107.67166100000001,"[{""day"":""Mon - Sun""
ObjectId("5c379680b96ec4c88ad1aff3"),Colorado Cellars,3553 E Rd,Palisade,CO,US,81526,39.045390000000005,-108.558702,"[{""day"":""Sat""
ObjectId("5c379680b96ec4c88ad1aff9"),Crooked Stave Barrel Cellar,1441 W 46th Ave,Denver,CO,US,80211,39.78084638,-105.0051571,"[{""day"":""Thursday""
ObjectId("5c379680b96ec4c88ad1b036"),Blue Moon Brewing Company,3750 Chestnut Pl,Denver,CO,US,80216,39.77357,-104.97691100000002,"[{""day"":""Sun - Sat""
ObjectId("5c379680b96ec4c88ad1b04e"),Pumphouse Brewery,540 Main St,Longmont,CO,US,80501,40.168724,-105.10231,"[{""day"":""Monday - Thursday
ObjectId("5c379680b96ec4c88ad1b04f"),Judge Baldwin's,4 S Cascade Ave,Colorado Springs,CO,US,80903,38.8336,-104.8266,"[{""day"":""Saturday""
ObjectId("5c379680b96ec4c88ad1b080"),Grist Brewing Company,9150 Commerce Center Cir,Littleton,CO,US,80129,39.54884487,-105.0339757,"[{""day"":""Monday - Thursday""
ObjectId("5c379680b96ec4c88ad1b092"),PJ's Wine & Spirits,665 Frontage Road,Longmont,CO,US,80501,40.1505,-105.1208,"[{""day"":""Monday - Saturday""
ObjectId("5c379680b96ec4c88ad1b101"),Backcountry Brewery,720 Main St,Frisco,CO,US,80443,39.57635,-106.09286499999999,"[{""day"":""Tuesday""
ObjectId("5c379680b96ec4c88ad1b11a"),Crooked Stave @ The Source,3350 Brighton Blvd,Denver,CO,US,80216,39.76862129,-104.979453,"[{""day"":""Monday - Sunday""
ObjectId("5c379680b96ec4c88ad1b120"),Our Mutual Friend Brewing Company,2810 Larimer St,Denver,CO,US,80205,39.76060651,-104.9825338,"[{""day"":""Tuesday - Thursday""
ObjectId("5c379680b96ec4c88ad1b121"),Beryl's Beer Co.,3120 Blake Street,Denver,CO,US,80205,39.7647,-104.9807,"[{""day"":""Monday - Thursday""
ObjectId("5c379680b96ec4c88ad1b12b"),Lowdown Brewery+Kitchen,800 N Lincoln St,Denver,CO,US,80203,39.7293,-104.9858,"[{""day"":""Monday - Thursday
ObjectId("5c379680b96ec4c88ad1b138"),Wild Mountain Smokehouse,70 E 1st St,Nederland,CO,US,80466,39.9618,-105.5094,"[{""day"":""Saturday""
ObjectId("5c379680b96ec4c88ad1b13a"),Go Fast Sports,2600 W 8th Ave,Denver,CO,US,80204,39.729,-105.0195,"[{""day"":""Thu""
ObjectId("5c379680b96ec4c88ad1b13c"),Funkwerks,1900 E Lincoln Ave,Fort Collins,CO,US,80524,40.58331,-105.04351000000001,"[{""day"":""Monday - Thursday
ObjectId("5c379680b96ec4c88ad1b146"),Colorado Boy Pizzaria,320 E Main St,Montrose,CO,US,81401,38.4789,-107.8772,"[{""day"":""Tue - Sun""
ObjectId("5c379680b96ec4c88ad1b14e"),Shine Restaurant & Gathering,2027 13th St,Boulder,CO,US,80302,40.0188,-105.279,"[{""day"":""Mon - Sun""
ObjectId("5c379680b96ec4c88ad1b15a"),Breckenridge Brewery & Pub,600 S Main St,Breckenridge,CO,US,80424,39.4792,-106.0457,"[{""day"":""Monday - Sunday""
ObjectId("5c379680b96ec4c88ad1b172"),Fieldhouse Brewing Company,521 S Tejon St,Colorado Springs,CO,US,80903,38.82605,-104.8234,"[{""day"":""Friday""
ObjectId("5c379680b96ec4c88ad1b1df"),Dad & Dude's Breweria,6730 S Cornerstar Way,Aurora,CO,US,80016,39.594006,-104.80638,"[{""day"":""Friday - Saturday""
ObjectId("5c379680b96ec4c88ad1b1e2"),Bull & Bush Pub & Brewery,4700 Cherry Creek Dr. S.,Denver,CO,US,80246,39.703070000000004,-104.93249499999999,"[{""day"":""Sun""
ObjectId("5c379680b96ec4c88ad1b1e7"),Boulder Beer Brewery,2880 Wilderness Pl,Boulder,CO,US,80301,40.026615,-105.2481,"[{""day"":""Saturday""
ObjectId("5c379680b96ec4c88ad1b1ed"),Ironworks Brewery & Pub,12354 W Alameda Pkwy,Denver,CO,US,80228,39.703346,-105.13621499999999,"[{""day"":""Monday - Saturday""
ObjectId("5c379680b96ec4c88ad1b1fb"),The Post Brewing Company,105 W. Emma St,Lafayette,CO,US,80026,39.994526,-105.09128600000001,"[{""day"":""Monday - Thursday""
ObjectId("5c379680b96ec4c88ad1b1fd"),Grand Lake Brewing Tavern,5610 Yukon St,Arvada,CO,US,80002,39.799446,-105.08246000000001,"[{""day"":""Monday - Thursday
ObjectId("5c379680b96ec4c88ad1b228"),George Restaurant & Pub,292 E Meadow Dr,Vail,CO,US,81657,39.64165,-106.37279,"[{""day"":""Monday""
ObjectId("5c379680b96ec4c88ad1b238"),Denver ChopHouse & Brewery,1735 19th St,Denver,CO,US,80202,39.7552,-104.99700000000001,"[{""day"":""Monday - Thursday
